<?xml version="1.0" encoding="UTF-8"?>
<ndm xmlns:xsi="http://www.w3.org/2001/XMLSchema-instance" xsi:noNamespaceSchemaLocation="https://sanaregistry.org/r/ndmxml_unqualified/ndmxml-2.0.0-master-2.0.xsd">
<omm id="CCSDS_OMM_VERS" version="2.0">
<header><CREATION_DATE/><ORIGINATOR/></header><body><segment><metadata><OBJECT_NAME>KUIPER-00079</OBJECT_NAME><OBJECT_ID>2025-151L</OBJECT_ID><CENTER_NAME>EARTH</CENTER_NAME><REF_FRAME>TEME</REF_FRAME><TIME_SYSTEM>UTC</TIME_SYSTEM><MEAN_ELEMENT_THEORY>SGP4</MEAN_ELEMENT_THEORY></metadata><data><meanElements><EPOCH>2025-12-04T11:24:39.979008</EPOCH><MEAN_MOTION>14.80218716</MEAN_MOTION><ECCENTRICITY>.0011554</ECCENTRICITY><INCLINATION>51.8994</INCLINATION><RA_OF_ASC_NODE>1.6074</RA_OF_ASC_NODE><ARG_OF_PERICENTER>286.2754</ARG_OF_PERICENTER><MEAN_ANOMALY>73.6937</MEAN_ANOMALY></meanElements><tleParameters><EPHEMERIS_TYPE>0</EPHEMERIS_TYPE><CLASSIFICATION_TYPE>U</CLASSIFICATION_TYPE><NORAD_CAT_ID>64826</NORAD_CAT_ID><ELEMENT_SET_NO>999</ELEMENT_SET_NO><REV_AT_EPOCH>2240</REV_AT_EPOCH><BSTAR>.11293E-2</BSTAR><MEAN_MOTION_DOT>.8464E-4</MEAN_MOTION_DOT><MEAN_MOTION_DDOT>0</MEAN_MOTION_DDOT></tleParameters></data></segment></body></omm>
<omm id="CCSDS_OMM_VERS" version="2.0">
<header><CREATION_DATE/><ORIGINATOR/></header><body><segment><metadata><OBJECT_NAME>KUIPER-00080</OBJECT_NAME><OBJECT_ID>2025-151M</OBJECT_ID><CENTER_NAME>EARTH</CENTER_NAME><REF_FRAME>TEME</REF_FRAME><TIME_SYSTEM>UTC</TIME_SYSTEM><MEAN_ELEMENT_THEORY>SGP4</MEAN_ELEMENT_THEORY></metadata><data><meanElements><EPOCH>2025-12-06T07:58:44.181984</EPOCH><MEAN_MOTION>14.80007691</MEAN_MOTION><ECCENTRICITY>.00059606</ECCENTRICITY><INCLINATION>51.9023</INCLINATION><RA_OF_ASC_NODE>353.3992</RA_OF_ASC_NODE><ARG_OF_PERICENTER>305.7020</ARG_OF_PERICENTER><MEAN_ANOMALY>54.3387</MEAN_ANOMALY></meanElements><tleParameters><EPHEMERIS_TYPE>0</EPHEMERIS_TYPE><CLASSIFICATION_TYPE>U</CLASSIFICATION_TYPE><NORAD_CAT_ID>64827</NORAD_CAT_ID><ELEMENT_SET_NO>999</ELEMENT_SET_NO><REV_AT_EPOCH>2148</REV_AT_EPOCH><BSTAR>.13347262E-2</BSTAR><MEAN_MOTION_DOT>.9988E-4</MEAN_MOTION_DOT><MEAN_MOTION_DDOT>0</MEAN_MOTION_DDOT></tleParameters></data></segment></body></omm>
<omm id="CCSDS_OMM_VERS" version="2.0">
<header><CREATION_DATE/><ORIGINATOR/></header><body><segment><metadata><OBJECT_NAME>KUIPER-00082</OBJECT_NAME><OBJECT_ID>2025-151N</OBJECT_ID><CENTER_NAME>EARTH</CENTER_NAME><REF_FRAME>TEME</REF_FRAME><TIME_SYSTEM>UTC</TIME_SYSTEM><MEAN_ELEMENT_THEORY>SGP4</MEAN_ELEMENT_THEORY></metadata><data><meanElements><EPOCH>2025-12-06T09:06:45.529632</EPOCH><MEAN_MOTION>14.79931239</MEAN_MOTION><ECCENTRICITY>.0005228</ECCENTRICITY><INCLINATION>51.9033</INCLINATION><RA_OF_ASC_NODE>340.7024</RA_OF_ASC_NODE><ARG_OF_PERICENTER>320.7246</ARG_OF_PERICENTER><MEAN_ANOMALY>39.3337</MEAN_ANOMALY></meanElements><tleParameters><EPHEMERIS_TYPE>0</EPHEMERIS_TYPE><CLASSIFICATION_TYPE>U</CLASSIFICATION_TYPE><NORAD_CAT_ID>64828</NORAD_CAT_ID><ELEMENT_SET_NO>999</ELEMENT_SET_NO><REV_AT_EPOCH>2166</REV_AT_EPOCH><BSTAR>.54954267E-2</BSTAR><MEAN_MOTION_DOT>.4194E-3</MEAN_MOTION_DOT><MEAN_MOTION_DDOT>0</MEAN_MOTION_DDOT></tleParameters></data></segment></body></omm>
<omm id="CCSDS_OMM_VERS" version="2.0">
<header><CREATION_DATE/><ORIGINATOR/></header><body><segment><metadata><OBJECT_NAME>KUIPER-00083</OBJECT_NAME><OBJECT_ID>2025-151P</OBJECT_ID><CENTER_NAME>EARTH</CENTER_NAME><REF_FRAME>TEME</REF_FRAME><TIME_SYSTEM>UTC</TIME_SYSTEM><MEAN_ELEMENT_THEORY>SGP4</MEAN_ELEMENT_THEORY></metadata><data><meanElements><EPOCH>2025-12-06T07:17:45.024576</EPOCH><MEAN_MOTION>14.79890411</MEAN_MOTION><ECCENTRICITY>.00110901</ECCENTRICITY><INCLINATION>51.9018</INCLINATION><RA_OF_ASC_NODE>348.5343</RA_OF_ASC_NODE><ARG_OF_PERICENTER>292.5060</ARG_OF_PERICENTER><MEAN_ANOMALY>67.4728</MEAN_ANOMALY></meanElements><tleParameters><EPHEMERIS_TYPE>0</EPHEMERIS_TYPE><CLASSIFICATION_TYPE>U</CLASSIFICATION_TYPE><NORAD_CAT_ID>64829</NORAD_CAT_ID><ELEMENT_SET_NO>999</ELEMENT_SET_NO><REV_AT_EPOCH>2273</REV_AT_EPOCH><BSTAR>-.14564041E-2</BSTAR><MEAN_MOTION_DOT>-.11308E-3</MEAN_MOTION_DOT><MEAN_MOTION_DDOT>0</MEAN_MOTION_DDOT></tleParameters></data></segment></body></omm>
<omm id="CCSDS_OMM_VERS" version="2.0">
<header><CREATION_DATE/><ORIGINATOR/></header><body><segment><metadata><OBJECT_NAME>KUIPER-00084</OBJECT_NAME><OBJECT_ID>2025-151Q</OBJECT_ID><CENTER_NAME>EARTH</CENTER_NAME><REF_FRAME>TEME</REF_FRAME><TIME_SYSTEM>UTC</TIME_SYSTEM><MEAN_ELEMENT_THEORY>SGP4</MEAN_ELEMENT_THEORY></metadata><data><meanElements><EPOCH>2025-12-06T08:39:30.547872</EPOCH><MEAN_MOTION>14.79955718</MEAN_MOTION><ECCENTRICITY>.0012343</ECCENTRICITY><INCLINATION>51.9014</INCLINATION><RA_OF_ASC_NODE>358.2674</RA_OF_ASC_NODE><ARG_OF_PERICENTER>268.3204</ARG_OF_PERICENTER><MEAN_ANOMALY>91.6345</MEAN_ANOMALY></meanElements><tleParameters><EPHEMERIS_TYPE>0</EPHEMERIS_TYPE><CLASSIFICATION_TYPE>U</CLASSIFICATION_TYPE><NORAD_CAT_ID>64830</NORAD_CAT_ID><ELEMENT_SET_NO>999</ELEMENT_SET_NO><REV_AT_EPOCH>2141</REV_AT_EPOCH><BSTAR>-.16865976E-4</BSTAR><MEAN_MOTION_DOT>-.353E-5</MEAN_MOTION_DOT><MEAN_MOTION_DDOT>0</MEAN_MOTION_DDOT></tleParameters></data></segment></body></omm>
<omm id="CCSDS_OMM_VERS" version="2.0">
<header><CREATION_DATE/><ORIGINATOR/></header><body><segment><metadata><OBJECT_NAME>KUIPER-00085</OBJECT_NAME><OBJECT_ID>2025-151R</OBJECT_ID><CENTER_NAME>EARTH</CENTER_NAME><REF_FRAME>TEME</REF_FRAME><TIME_SYSTEM>UTC</TIME_SYSTEM><MEAN_ELEMENT_THEORY>SGP4</MEAN_ELEMENT_THEORY></metadata><data><meanElements><EPOCH>2025-12-06T09:55:18.863328</EPOCH><MEAN_MOTION>14.79973871</MEAN_MOTION><ECCENTRICITY>.00073356</ECCENTRICITY><INCLINATION>51.9043</INCLINATION><RA_OF_ASC_NODE>340.5669</RA_OF_ASC_NODE><ARG_OF_PERICENTER>308.2919</ARG_OF_PERICENTER><MEAN_ANOMALY>51.7383</MEAN_ANOMALY></meanElements><tleParameters><EPHEMERIS_TYPE>0</EPHEMERIS_TYPE><CLASSIFICATION_TYPE>U</CLASSIFICATION_TYPE><NORAD_CAT_ID>64831</NORAD_CAT_ID><ELEMENT_SET_NO>999</ELEMENT_SET_NO><REV_AT_EPOCH>2166</REV_AT_EPOCH><BSTAR>-.6473312E-3</BSTAR><MEAN_MOTION_DOT>-.5161E-4</MEAN_MOTION_DOT><MEAN_MOTION_DDOT>0</MEAN_MOTION_DDOT></tleParameters></data></segment></body></omm>
<omm id="CCSDS_OMM_VERS" version="2.0">
<header><CREATION_DATE/><ORIGINATOR/></header><body><segment><metadata><OBJECT_NAME>KUIPER-00086</OBJECT_NAME><OBJECT_ID>2025-151S</OBJECT_ID><CENTER_NAME>EARTH</CENTER_NAME><REF_FRAME>TEME</REF_FRAME><TIME_SYSTEM>UTC</TIME_SYSTEM><MEAN_ELEMENT_THEORY>SGP4</MEAN_ELEMENT_THEORY></metadata><data><meanElements><EPOCH>2025-12-06T09:39:44.199360</EPOCH><MEAN_MOTION>14.79940826</MEAN_MOTION><ECCENTRICITY>.00110369</ECCENTRICITY><INCLINATION>51.9037</INCLINATION><RA_OF_ASC_NODE>350.6021</RA_OF_ASC_NODE><ARG_OF_PERICENTER>291.4399</ARG_OF_PERICENTER><MEAN_ANOMALY>68.5386</MEAN_ANOMALY></meanElements><tleParameters><EPHEMERIS_TYPE>0</EPHEMERIS_TYPE><CLASSIFICATION_TYPE>U</CLASSIFICATION_TYPE><NORAD_CAT_ID>64832</NORAD_CAT_ID><ELEMENT_SET_NO>999</ELEMENT_SET_NO><REV_AT_EPOCH>2152</REV_AT_EPOCH><BSTAR>-.64034374E-3</BSTAR><MEAN_MOTION_DOT>-.5108E-4</MEAN_MOTION_DOT><MEAN_MOTION_DDOT>0</MEAN_MOTION_DDOT></tleParameters></data></segment></body></omm>
<omm id="CCSDS_OMM_VERS" version="2.0">
<header><CREATION_DATE/><ORIGINATOR/></header><body><segment><metadata><OBJECT_NAME>KUIPER-00087</OBJECT_NAME><OBJECT_ID>2025-151T</OBJECT_ID><CENTER_NAME>EARTH</CENTER_NAME><REF_FRAME>TEME</REF_FRAME><TIME_SYSTEM>UTC</TIME_SYSTEM><MEAN_ELEMENT_THEORY>SGP4</MEAN_ELEMENT_THEORY></metadata><data><meanElements><EPOCH>2025-12-06T06:52:28.212096</EPOCH><MEAN_MOTION>14.79976110</MEAN_MOTION><ECCENTRICITY>.00009396</ECCENTRICITY><INCLINATION>51.9001</INCLINATION><RA_OF_ASC_NODE>333.6118</RA_OF_ASC_NODE><ARG_OF_PERICENTER>354.8709</ARG_OF_PERICENTER><MEAN_ANOMALY>5.2243</MEAN_ANOMALY></meanElements><tleParameters><EPHEMERIS_TYPE>0</EPHEMERIS_TYPE><CLASSIFICATION_TYPE>U</CLASSIFICATION_TYPE><NORAD_CAT_ID>64833</NORAD_CAT_ID><ELEMENT_SET_NO>999</ELEMENT_SET_NO><REV_AT_EPOCH>2174</REV_AT_EPOCH><BSTAR>.9841712E-3</BSTAR><MEAN_MOTION_DOT>.7297E-4</MEAN_MOTION_DOT><MEAN_MOTION_DDOT>0</MEAN_MOTION_DDOT></tleParameters></data></segment></body></omm>

</ndm>
