KUIPER-00079            
1 64826U 25151L   25338.47546272  .00008464  00000+0  11293-2 0  9997
2 64826  51.8994   1.6074 0011554 286.2754  73.6937 14.80218716 22403
KUIPER-00080            
1 64827U 25151M   25340.33245581  .00009988  00000+0  13347-2 0  9999
2 64827  51.9023 353.3992 0005960 305.7020  54.3387 14.80007691 21481
KUIPER-00082            
1 64828U 25151N   25340.37969363  .00041940  00000+0  54954-2 0  9998
2 64828  51.9033 340.7024 0005228 320.7246  39.3337 14.79931239 21663
KUIPER-00083            
1 64829U 25151P   25340.30399334 -.00011308  00000+0 -14564-2 0  9997
2 64829  51.9018 348.5343 0011090 292.5060  67.4728 14.79890411 22732
KUIPER-00084            
1 64830U 25151Q   25340.36077023 -.00000353  00000+0 -16866-4 0  9990
2 64830  51.9014 358.2674 0012343 268.3204  91.6345 14.79955718 21418
KUIPER-00085            
1 64831U 25151R   25340.41341277 -.00005161  00000+0 -64733-3 0  9999
2 64831  51.9043 340.5669 0007335 308.2919  51.7383 14.79973871 21667
KUIPER-00086            
1 64832U 25151S   25340.40259490 -.00005108  00000+0 -64034-3 0  9999
2 64832  51.9037 350.6021 0011036 291.4399  68.5386 14.79940826 21521
KUIPER-00087            
1 64833U 25151T   25340.28643764  .00007297  00000+0  98417-3 0  9998
2 64833  51.9001 333.6118 0000939 354.8709   5.2243 14.79976110 21749
